NORAD_CAT_ID,OBJECT_NAME,OBJECT_TYPE,EPOCH,MEAN_MOTION,ECCENTRICITY,INCLINATION,RA_OF_ASC_NODE,ARG_OF_PERICENTER,MEAN_ANOMALY,BSTAR,MEAN_MOTION_DOT,MEAN_MOTION_DDOT,TLE_LINE0,TLE_LINE1,TLE_LINE2,SEMIMAJOR_AXIS,PERIOD,APOGEE,PERIGEE,DECAYED
56813.0,STARLINK-6056,PAYLOAD,2024-03-24 22:49:40,14.98328217,0.0002835,70.002,346.3927,252.138,107.947,2.0119e-05,1.47e-06,0.0,0 STARLINK-6056,1 56813U 23078AY  24084.95115874  .00000147  00000-0  20119-4 0  9990,2 56813  70.0020 346.3927 0002835 252.1380 107.9470 14.98328217 45627,6950.198,96.107,574.034,570.093,0.0
56813.0,STARLINK-6056,PAYLOAD,2024-03-25 03:38:04,14.98329997,0.0002761,70.0022,345.888,247.1441,112.9427,3.6483e-05,3.42e-06,0.0,0 STARLINK-6056,1 56813U 23078AY  24085.15143673  .00000342  00000-0  36483-4 0  9999,2 56813  70.0022 345.8880 0002761 247.1441 112.9427 14.98329997 45917,6950.193,96.107,573.977,570.139,0.0
56813.0,STARLINK-6056,PAYLOAD,2024-03-25 22:51:40,14.98330347,0.0002622,70.0019,343.8656,262.2671,97.819,2.1495e-05,1.64e-06,0.0,0 STARLINK-6056,1 56813U 23078AY  24085.95255734  .00000164  00000-0  21495-4 0  9998,2 56813  70.0019 343.8656 0002622 262.2671  97.8190 14.98330347 45774,6950.192,96.107,573.879,570.234,0.0
56813.0,STARLINK-6056,PAYLOAD,2024-03-26 03:37:56,14.99973128,0.0004988,70.0026,343.3548,329.2172,30.8694,0.017781,0.0022869,0.0,0 STARLINK-6056,1 56813U 23078AY  24086.15135166  .00228690  00000-0  17781-1 0  9993,2 56813  70.0026 343.3548 0004988 329.2172  30.8694 14.99973128 46064,6945.116,96.002,570.446,563.517,0.0
56813.0,STARLINK-6056,PAYLOAD,2024-03-26 12:00:00,14.98279272,0.0002983,70.0027,342.4855,268.7838,163.4298,0.0047295,0.00056723,0.0,0 STARLINK-6056,1 56813U 23078AY  24086.50001157  .00056723  00000-0  47295-2 0  9994,2 56813  70.0027 342.4855 0002983 268.7838 163.4298 14.98279272 46112,6950.35,96.11,574.288,570.141,0.0
56813.0,STARLINK-6056,PAYLOAD,2024-03-26 14:00:01,14.98275929,0.0003006,70.0025,342.2755,267.738,253.8376,0.0068259,0.000822,0.0,0 STARLINK-6056,1 56813U 23078AY  24086.58334491  .00082200  00000-0  68259-2 0  9994,2 56813  70.0025 342.2755 0003006 267.7380 253.8376 14.98275929  5790,6950.36,96.11,574.314,570.136,0.0
56813.0,STARLINK-6056,PAYLOAD,2024-03-26 21:17:34,14.98320406,0.0002762,70.0011,341.51,264.4215,95.6629,-0.00010578,-1.355e-05,0.0,0 STARLINK-6056,1 56813U 23078AY  24086.88720637 -.00001355  00000-0 -10578-3 0  9994,2 56813  70.0011 341.5100 0002762 264.4215  95.6629 14.98320406 46171,6950.223,96.108,574.007,570.168,0.0
56813.0,STARLINK-6056,PAYLOAD,2024-03-26 22:53:42,14.98320678,0.0002693,70.0013,341.3421,262.269,97.8163,-9.196e-05,-1.19e-05,0.0,0 STARLINK-6056,1 56813U 23078AY  24086.95396618 -.00001190  00000-0 -91960-4 0  9992,2 56813  70.0013 341.3421 0002693 262.2690  97.8163 14.98320678 45923,6950.222,96.108,573.958,570.215,0.0
56813.0,STARLINK-6056,PAYLOAD,2024-03-27 10:06:38,14.9833224,0.0002745,70.0014,340.1623,271.4468,88.6376,-7.7316e-05,-1.015e-05,0.0,0 STARLINK-6056,1 56813U 23078AY  24087.42127985 -.00001015  00000-0 -77316-4 0  9999,2 56813  70.0014 340.1623 0002745 271.4468  88.6376 14.98332240 46257,6950.186,96.107,573.959,570.143,0.0
56813.0,STARLINK-6056,PAYLOAD,2024-03-27 22:55:42,14.98335629,0.0002845,70.001,338.8166,267.2273,92.856,4.5689e-06,-3.8e-07,0.0,0 STARLINK-6056,1 56813U 23078AY  24087.95535515 -.00000038  00000-0  45689-5 0  9991,2 56813  70.0010 338.8166 0002845 267.2273  92.8560 14.98335629 46073,6950.175,96.107,574.018,570.063,0.0
56813.0,STARLINK-6056,PAYLOAD,2024-03-28 02:07:58,14.98337588,0.0002818,70.0011,338.4798,265.0859,94.9978,3.6047e-05,3.37e-06,0.0,0 STARLINK-6056,1 56813U 23078AY  24088.08887282  .00000337  00000-0  36047-4 0  9995,2 56813  70.0011 338.4798 0002818 265.0859  94.9978 14.98337588 46350,6950.169,96.107,573.993,570.076,0.0
56813.0,STARLINK-6056,PAYLOAD,2024-03-28 10:08:39,14.98329593,0.0002834,70.0013,337.6385,291.2676,68.8181,1.4824e-05,8.4e-07,0.0,0 STARLINK-6056,1 56813U 23078AY  24088.42267799  .00000084  00000-0  14824-4 0  9996,2 56813  70.0013 337.6385 0002834 291.2676  68.8181 14.98329593 46400,6950.194,96.107,574.029,570.089,0.0
56813.0,STARLINK-6056,PAYLOAD,2024-03-28 22:57:44,14.98319262,0.0002961,70.0014,336.2897,271.2444,88.8376,0.00024593,2.842e-05,0.0,0 STARLINK-6056,1 56813U 23078AY  24088.95675996  .00002842  00000-0  24593-3 0  9993,2 56813  70.0014 336.2897 0002961 271.2444  88.8376 14.98319262 46226,6950.226,96.108,574.149,570.033,0.0
56813.0,STARLINK-6056,PAYLOAD,2024-03-29 02:10:00,14.98314103,0.000293,70.0016,335.953,271.2796,88.8027,0.00033157,3.864e-05,0.0,0 STARLINK-6056,1 56813U 23078AY  24089.09028201  .00003864  00000-0  33157-3 0  9991,2 56813  70.0016 335.9530 0002930 271.2796  88.8027 14.98314103 46507,6950.242,96.108,574.143,570.071,0.0
56813.0,STARLINK-6056,PAYLOAD,2024-03-29 10:10:40,14.98329923,0.0002682,70.0016,335.1112,268.7644,91.3208,2.5218e-05,2.08e-06,0.0,0 STARLINK-6056,1 56813U 23078AY  24089.42407981  .00000208  00000-0  25218-4 0  9993,2 56813  70.0016 335.1112 0002682 268.7644  91.3208 14.98329923 46553,6950.193,96.107,573.922,570.194,0.0
56813.0,STARLINK-6056,PAYLOAD,2024-03-29 22:59:44,14.9833218,0.0002821,70.0015,333.7658,267.6705,92.4131,-2.2433e-05,-3.61e-06,0.0,0 STARLINK-6056,1 56813U 23078AY  24089.95815813 -.00000361  00000-0 -22433-4 0  9996,2 56813  70.0015 333.7658 0002821 267.6705  92.4131 14.98332180 46378,6950.186,96.107,574.012,570.091,0.0
56813.0,STARLINK-6056,PAYLOAD,2024-03-30 02:12:01,14.98332464,0.0002736,70.0017,333.4292,268.7427,91.3419,-2.2744e-05,-3.64e-06,0.0,0 STARLINK-6056,1 56813U 23078AY  24090.09167836 -.00000364  00000-0 -22744-4 0  9996,2 56813  70.0017 333.4292 0002736 268.7427  91.3419 14.98332464 46393,6950.185,96.107,573.952,570.149,0.0
56813.0,STARLINK-6056,PAYLOAD,2024-03-30 23:01:45,14.9833251,0.0002728,70.0014,331.2406,270.7377,89.3469,-2.9236e-05,-4.42e-06,0.0,0 STARLINK-6056,1 56813U 23078AY  24090.95955801 -.00000442  00000-0 -29236-4 0  9998,2 56813  70.0014 331.2406 0002728 270.7377  89.3469 14.98332510 46520,6950.185,96.107,573.946,570.154,0.0
56813.0,STARLINK-6056,PAYLOAD,2024-03-31 02:14:02,14.98330574,0.0002808,70.0016,330.9047,269.4154,90.6683,-1.9356e-05,-3.24e-06,0.0,0 STARLINK-6056,1 56813U 23078AY  24091.09307877 -.00000324  00000-0 -19356-4 0  9999,2 56813  70.0016 330.9047 0002808 269.4154  90.6683 14.98330574 46808,6950.191,96.107,574.008,570.105,0.0
56813.0,STARLINK-6056,PAYLOAD,2024-03-31 08:38:34,14.98334675,0.0002804,70.0016,330.2314,269.5773,90.5064,-2.501e-05,-3.91e-06,0.0,0 STARLINK-6056,1 56813U 23078AY  24091.36011588 -.00000391  00000-0 -25010-4 0  9998,2 56813  70.0016 330.2314 0002804 269.5773  90.5064 14.98334675 46585,6950.178,96.107,573.992,570.095,0.0
56813.0,STARLINK-6056,PAYLOAD,2024-03-31 19:51:30,14.98335039,0.0002943,70.001,329.0531,271.1842,88.898,7.6322e-05,8.18e-06,0.0,0 STARLINK-6056,1 56813U 23078AY  24091.82743118  .00000818  00000-0  76322-4 0  9994,2 56813  70.0010 329.0531 0002943 271.1842  88.8980 14.98335039 46915,6950.177,96.107,574.088,569.997,0.0
56813.0,STARLINK-6056,PAYLOAD,2024-03-31 21:27:37,14.98345074,0.000286,70.0009,328.8847,272.9188,87.1644,-0.00011887,-1.512e-05,0.0,0 STARLINK-6056,1 56813U 23078AY  24091.89418923 -.00001512  00000-0 -11887-3 0  9992,2 56813  70.0009 328.8847 0002860 272.9188  87.1644 14.98345074 46661,6950.146,96.106,573.999,570.024,0.0
56813.0,STARLINK-6056,PAYLOAD,2024-04-01 15:05:07,14.98327521,0.0002888,70.0005,327.033,273.5312,86.5516,-4.201e-05,-5.94e-06,0.0,0 STARLINK-6056,1 56813U 23078AY  24092.62855799 -.00000594  00000-0 -42010-4 0  9992,2 56813  70.0005 327.0330 0002888 273.5312  86.5516 14.98327521 46771,6950.201,96.107,574.073,570.058,0.0
56813.0,STARLINK-6056,PAYLOAD,2024-04-01 21:29:39,14.98329201,0.0002928,70.0005,326.3598,272.1776,87.9048,-5.3295e-05,-7.29e-06,0.0,0 STARLINK-6056,1 56813U 23078AY  24092.89559717 -.00000729  00000-0 -53295-4 0  9999,2 56813  70.0005 326.3598 0002928 272.1776  87.9048 14.98329201 47079,6950.195,96.107,574.095,570.025,0.0
56813.0,STARLINK-6056,PAYLOAD,2024-04-02 08:42:36,14.98329215,0.0002928,70.0006,325.1821,269.7599,90.3225,-3.4345e-05,-5.03e-06,0.0,0 STARLINK-6056,1 56813U 23078AY  24093.36291693 -.00000503  00000-0 -34345-4 0  9993,2 56813  70.0006 325.1821 0002928 269.7599  90.3225 14.98329215 46889,6950.195,96.107,574.095,570.025,0.0
56813.0,STARLINK-6056,PAYLOAD,2024-04-02 21:31:40,14.98331711,0.0002999,70.0006,323.8355,268.1074,91.9742,-2.5897e-05,-4.02e-06,0.0,0 STARLINK-6056,1 56813U 23078AY  24093.89699424 -.00000402  00000-0 -25897-4 0  9995,2 56813  70.0006 323.8355 0002999 268.1074  91.9742 14.98331711 47229,6950.188,96.107,574.137,569.968,0.0
56813.0,STARLINK-6056,PAYLOAD,2024-04-03 08:44:36,14.98344712,0.0003206,70.0002,322.6569,272.4442,87.635,-0.00023887,-2.943e-05,0.0,0 STARLINK-6056,1 56813U 23078AY  24094.36430997 -.00002943  00000-0 -23887-3 0  9994,2 56813  70.0002 322.6569 0003206 272.4442  87.6350 14.98344712 47039,6950.147,96.106,574.241,569.784,0.0
56813.0,STARLINK-6056,PAYLOAD,2024-04-03 21:33:41,14.98328349,0.0003194,69.9998,321.3094,270.287,89.7923,4.7253e-05,4.71e-06,0.0,0 STARLINK-6056,1 56813U 23078AY  24094.89839383  .00000471  00000-0  47253-4 0  9990,2 56813  69.9998 321.3094 0003194 270.2870  89.7923 14.98328349 47370,6950.198,96.107,574.283,569.843,0.0
56813.0,STARLINK-6056,PAYLOAD,2024-04-04 15:11:09,14.98329464,0.0003179,69.9996,319.4578,270.1275,89.952,1.8438e-05,1.27e-06,0.0,0 STARLINK-6056,1 56813U 23078AY  24095.63275382  .00000127  00000-0  18438-4 0  9997,2 56813  69.9996 319.4578 0003179 270.1275  89.9520 14.98329464 47222,6950.195,96.107,574.269,569.85,0.0
56813.0,STARLINK-6056,PAYLOAD,2024-04-04 21:35:42,14.98332109,0.0003204,69.9996,318.7847,270.434,89.6452,2.7832e-05,2.39e-06,0.0,0 STARLINK-6056,1 56813U 23078AY  24095.89979180  .00000239  00000-0  27832-4 0  9994,2 56813  69.9996 318.7847 0003204 270.4340  89.6452 14.98332109 47522,6950.186,96.107,574.278,569.825,0.0
